From: horizons@ssd.jpl.nasa.gov (Horizons Ephemeris System)
Subject: [Horizons] SMALL BODY #C(500@10)_T(55P/Tempel-Tuttle) (1/1)
Date: February 22, 2021 at 9:30:42 AM PST

Automated mail xmit by MAIL_REQUEST, PID= 7353 Mon Feb 22 09:30:42 2021
++++++++++++++++++++++++++++++++ (part 1 of 1)  +++++++++++++++++++++++++++++++
*******************************************************************************
JPL/HORIZONS                  55P/Tempel-Tuttle            2021-Feb-22 09:30:42
Rec #:90000616        Soln.date: 2002-Jan-03_16:05:39    # obs: 392 (1865-1998)

IAU76/J2000 helio. ecliptic osc. elements (au, days, deg., period=Julian yrs):

 EPOCH=  2451040.5 ! 1998-Aug-15.0000000 (TDB)    RMSW= n.a.
  EC= .9055527209724122   QR= .9764279154675056   TP= 2450872.5977341123
  OM= 235.270989149082    W= 172.5002736828059    IN= 162.4865753794343
  A= 10.33833822975773    MA= 4.978339684690188   ADIST= 19.70024854404794
  PER= 33.241783683417    N= .029650223           ANGMOM= .023464539
  DAN= 18.20692           DDN= .98041             L= 62.4267668
  B= 2.2510248            MOID= .00848081         TP= 1998-Feb-28.0977341123

Comet physical (GM= km^3/s^2; RAD= km):
  GM= n.a.                RAD= 1.8
  M1=  10.      M2=  16.      k1=  25.    k2=  10.     PHCOF= n.a.

Comet non-gravitational force model (AMRAT=m^2/kg;A1-A3=au/d^2;DT=days;R0=au):
  AMRAT=  0.                                      DT=  0.
  A1= 1.580981463194E-9   A2= 9.186415933073E-11  A3= 0.
Standard model:
  ALN=  .1112620426   NK=  4.6142   NM=  2.15     NN=  5.093    R0=  2.808

COMET comments 
1: soln ref.= JPL#J985/69, data arc: 1865-12-22 to 1998-07-05
2: k1=25.0, k2=10.0;
*******************************************************************************


*******************************************************************************
Ephemeris / MAIL_REQUEST Mon Feb 22 09:30:42 2021 Pasadena, USA  / Horizons
*******************************************************************************
Target body name: 55P/Tempel-Tuttle               {source: JPL#J985/69}
Center body name: Sun (10)                        {source: DE406}
Center-site name: BODY CENTER
*******************************************************************************
Start time      : A.D. 1990-Jan-01 00:00:00.0000 TDB
Stop  time      : A.D. 2020-Dec-31 00:00:00.0000 TDB
Step-size       : 200 steps
*******************************************************************************
Center geodetic : 0.00000000,0.00000000,0.0000000 {E-lon(deg),Lat(deg),Alt(km)}
Center cylindric: 0.00000000,0.00000000,0.0000000 {E-lon(deg),Dxy(km),Dz(km)}
Center radii    : 696000.0 x 696000.0 x 696000.0 k{Equator, meridian, pole}    
Small perturbers: Yes                             {source: SB406-CPV-2}
Output units    : AU-D
Output type     : GEOMETRIC cartesian states
Output format   : 6 (LT, range, and range-rate)
Reference frame : Ecliptic of J2000.0
*******************************************************************************
Initial IAU76/J2000 heliocentric ecliptic osculating elements (au, days, deg.):
 EPOCH=  2451040.5 ! 1998-Aug-15.0000000 (TDB)    RMSW= n.a.                  
  EC= .9055527209724122   QR= .9764279154675056   TP= 2450872.5977341123      
  OM= 235.270989149082    W= 172.5002736828059    IN= 162.4865753794343       
 Equivalent ICRF heliocentric equatorial cartesian coordinates (au, au/d):
  X= 1.722008948564452E+00  Y=-1.306804387069443E+00  Z=-1.397143536386168E+00
 VX= 8.841891235384890E-04 VY=-1.166410808786355E-02 VZ=-8.029643799453659E-03
Comet physical (GM= km^3/s^2; RAD= km):                                        
  GM= n.a.                RAD= 1.8                                            
  M1=  10.      M2=  16.      k1=  25.    k2=  10.     PHCOF= n.a.            
Comet non-gravitational force model (AMRAT=m^2/kg;A1-A3=au/d^2;DT=days;R0=au): 
  AMRAT=  0.                                      DT=  0.                     
  A1= 1.580981463194E-9   A2= 9.186415933073E-11  A3= 0.                      
Standard model:                                                               
  ALN=  .1112620426   NK=  4.6142   NM=  2.15     NN=  5.093    R0=  2.808    
*******************************************************************************
           JDTDB,            Calendar Date (TDB),                     LT,                     RG,                     RR,
**************************************************************************************************************************
$$SOE
2452874.180000000, A.D. 2003-Aug-22 16:19:12.0000,  7.692241233180054E-02,  1.331870282840733E+01,  3.575575581574280E-03,
2452930.790000000, A.D. 2003-Oct-18 06:57:36.0000,  7.807831840676101E-02,  1.351884176117432E+01,  3.495575303981200E-03,
2452987.400000000, A.D. 2003-Dec-13 21:36:00.0000,  7.920840770829235E-02,  1.371451065818883E+01,  3.417648856156315E-03,
2453044.010000000, A.D. 2004-Feb-08 12:14:24.0000,  8.031335997814291E-02,  1.390582721308618E+01,  3.341778429016169E-03,
2453100.620000000, A.D. 2004-Apr-05 02:52:48.0000,  8.139380919839066E-02,  1.409290119646040E+01,  3.267726964675545E-03,
2453157.230000000, A.D. 2004-May-31 17:31:12.0000,  8.245030824142435E-02,  1.427582833519816E+01,  3.195244922377884E-03,
2453213.840000000, A.D. 2004-Jul-27 08:09:36.0000,  8.348337053985637E-02,  1.445469752740054E+01,  3.124373955789783E-03,
2453270.450000000, A.D. 2004-Sep-21 22:48:00.0000,  8.449353059594328E-02,  1.462960131926442E+01,  3.055160655828579E-03,
2453327.060000000, A.D. 2004-Nov-17 13:26:24.0000,  8.548131542283391E-02,  1.480063096028788E+01,  2.987449087006817E-03,
2453383.670000000, A.D. 2005-Jan-13 04:04:48.0000,  8.644717855642500E-02,  1.496786497777716E+01,  2.921037821417248E-03,
2453440.280000000, A.D. 2005-Mar-10 18:43:12.0000,  8.739152855579814E-02,  1.513137411154437E+01,  2.855870843336224E-03,
2453496.890000000, A.D. 2005-May-06 09:21:36.0000,  8.831478359553439E-02,  1.529123076627377E+01,  2.791979232638686E-03,
2453553.500000000, A.D. 2005-Jul-02 00:00:00.0000,  8.921734454688234E-02,  1.544750435067042E+01,  2.729257130676821E-03,
2453610.110000000, A.D. 2005-Aug-27 14:38:24.0000,  9.009956423367642E-02,  1.560025595428756E+01,  2.667549079048997E-03,
2453666.720000000, A.D. 2005-Oct-23 05:16:48.0000,  9.096178608358178E-02,  1.574954503978210E+01,  2.606935491015530E-03,
2453723.330000000, A.D. 2005-Dec-18 19:55:12.0000,  9.180437693699804E-02,  1.589543512360031E+01,  2.547464443838922E-03,
2453779.940000000, A.D. 2006-Feb-13 10:33:36.0000,  9.262768410466181E-02,  1.603798634073210E+01,  2.488930070456151E-03,
2453836.550000000, A.D. 2006-Apr-11 01:12:00.0000,  9.343198336807479E-02,  1.617724644126428E+01,  2.431169806961884E-03,
2453893.160000000, A.D. 2006-Jun-06 15:50:24.0000,  9.421752752191655E-02,  1.631325919523880E+01,  2.374243784871265E-03,
2453949.770000000, A.D. 2006-Aug-02 06:28:48.0000,  9.498461026749978E-02,  1.644607545546154E+01,  2.318234678900139E-03,
2454006.380000000, A.D. 2006-Sep-27 21:07:12.0000,  9.573352509645794E-02,  1.657574603843360E+01,  2.263071415030391E-03,
2454062.990000000, A.D. 2006-Nov-23 11:45:36.0000,  9.646451753199484E-02,  1.670231345517989E+01,  2.208610797838189E-03,
2454119.600000000, A.D. 2007-Jan-19 02:24:00.0000,  9.717782360239414E-02,  1.682581857273092E+01,  2.154886234687128E-03,
2454176.210000000, A.D. 2007-Mar-16 17:02:24.0000,  9.787369460771211E-02,  1.694630490234260E+01,  2.101944661570032E-03,
2454232.820000000, A.D. 2007-May-12 07:40:48.0000,  9.855236045165509E-02,  1.706381225060773E+01,  2.049622884201843E-03,
2454289.430000000, A.D. 2007-Jul-07 22:19:12.0000,  9.921400750098996E-02,  1.717837288593170E+01,  1.997832443675162E-03,
2454346.040000000, A.D. 2007-Sep-02 12:57:36.0000,  9.985882730778015E-02,  1.729001997452619E+01,  1.946721377009564E-03,
2454402.650000000, A.D. 2007-Oct-29 03:36:00.0000,  1.004870572115044E-01,  1.739879461044802E+01,  1.896351248266776E-03,
2454459.260000000, A.D. 2007-Dec-24 18:14:24.0000,  1.010989254283941E-01,  1.750473630811281E+01,  1.846584238788928E-03,
2454515.870000000, A.D. 2008-Feb-19 08:52:48.0000,  1.016945962660139E-01,  1.760787351649347E+01,  1.797273989142760E-03,
2454572.480000000, A.D. 2008-Apr-15 23:31:12.0000,  1.022742236813962E-01,  1.770823289242378E+01,  1.748468168854809E-03,
2454629.090000000, A.D. 2008-Jun-11 14:09:36.0000,  1.028379950163312E-01,  1.780584687312924E+01,  1.700266896880966E-03,
2454685.700000000, A.D. 2008-Aug-07 04:48:00.0000,  1.033860907446952E-01,  1.790074670669285E+01,  1.652569322514550E-03,
2454742.310000000, A.D. 2008-Oct-02 19:26:24.0000,  1.039186600843596E-01,  1.799295822938816E+01,  1.605293316880142E-03,
2454798.920000000, A.D. 2008-Nov-28 10:04:48.0000,  1.044358619950451E-01,  1.808250896423760E+01,  1.558576930876992E-03,
2454855.530000000, A.D. 2009-Jan-24 00:43:12.0000,  1.049378826560701E-01,  1.816943114719088E+01,  1.512426594570467E-03,
2454912.140000000, A.D. 2009-Mar-21 15:21:36.0000,  1.054248824570432E-01,  1.825375254884787E+01,  1.466649261922012E-03,
2454968.750000000, A.D. 2009-May-17 06:00:00.0000,  1.058969657290177E-01,  1.833549123357047E+01,  1.421186547375986E-03,
2455025.360000000, A.D. 2009-Jul-12 20:38:24.0000,  1.063542502391728E-01,  1.841466759211367E+01,  1.376167602614479E-03,
2455081.970000000, A.D. 2009-Sep-07 11:16:48.0000,  1.067969048846005E-01,  1.849131086810240E+01,  1.331676790794707E-03,
2455138.580000000, A.D. 2009-Nov-03 01:55:12.0000,  1.072250869676331E-01,  1.856544829759122E+01,  1.287609839413096E-03,
2455195.190000000, A.D. 2009-Dec-29 16:33:36.0000,  1.076389093728816E-01,  1.863709942594466E+01,  1.243847095784126E-03,
2455251.800000000, A.D. 2010-Feb-24 07:12:00.0000,  1.080384860899016E-01,  1.870628398984243E+01,  1.200469574032987E-03,
2455308.410000000, A.D. 2010-Apr-21 21:50:24.0000,  1.084239485597878E-01,  1.877302474760459E+01,  1.157505355963055E-03,
